OBJECT_NAME,OBJECT_ID,EPOCH,MEAN_MOTION,ECCENTRICITY,INCLINATION,RA_OF_ASC_NODE,ARG_OF_PERICENTER,MEAN_ANOMALY,EPHEMERIS_TYPE,CLASSIFICATION_TYPE,NORAD_CAT_ID,ELEMENT_SET_NO,REV_AT_EPOCH,BSTAR,MEAN_MOTION_DOT,MEAN_MOTION_DDOT
PERSEUS-M1,2014-033AF,2026-06-12T19:42:38.358720,14.95620307,.00105977,97.9645,107.8817,318.1805,41.8605,0,U,40039,999,64998,.11117025E-3,.1175E-4,0
POLYITAN-1,2014-033AJ,2026-06-13T00:08:25.633536,15.33116977,.00083508,98.0944,189.8714,153.2138,206.9535,0,U,40042,999,65295,.62148859E-3,.19846E-3,0
TIGRISAT,2014-033AK,2026-06-13T03:22:43.161312,14.85147869,.00506991,97.7822,314.2453,88.1511,272.5510,0,U,40043,999,64502,.23300527E-3,.1986E-4,0
AEROCUBE 6A,2014-033AM,2026-06-13T06:47:45.077568,14.98069607,.00391984,97.7227,331.2733,31.2062,329.1476,0,U,40045,999,64603,.52407738E-3,.6239E-4,0
AEROCUBE 6B,2014-033AN,2026-06-12T16:31:46.723872,14.99528071,.00387096,97.7230,330.4656,24.7259,335.5809,0,U,40046,999,64608,.52080305E-3,.6439E-4,0
CANX-4,2014-034C,2026-06-12T21:30:32.010048,14.81257505,.00134645,98.3129,39.0517,30.3250,329.8738,0,U,40055,999,64389,.12323078E-3,.904E-5,0
CANX-5,2014-034D,2026-06-13T05:34:42.571488,14.81275215,.00134543,98.3130,39.4437,29.3655,330.8310,0,U,40056,999,63475,.12197242E-3,.895E-5,0
UKUBE-1,2014-037F,2026-06-13T06:25:25.976928,15.13496343,.00024314,98.4232,167.1277,135.9382,224.2040,0,U,40074,999,64796,.48888008E-3,.8678E-4,0
BRITE-PL2 (HEWELIUSZ),2014-049B,2026-06-13T06:56:34.384704,14.94581695,.00151716,97.9094,276.2593,120.0264,240.2463,0,U,40119,999,64086,.1388419E-3,.1445E-4,0
AEROCUBE 5C,2015-058B,2026-06-12T16:16:41.059200,14.91434326,.01305727,64.7678,276.6167,65.0335,296.4275,0,U,40965,999,36498,.22665378E-3,.2496E-4,0
AEROCUBE 7,2015-058C,2026-06-12T22:55:03.692640,14.95700512,.01202902,64.7629,258.0717,63.3704,297.9673,0,U,40966,999,36532,.27085199E-3,.3315E-4,0
FOX-1A (AO-85),2015-058D,2026-06-12T17:23:06.617760,14.90949991,.01302253,64.7760,292.8522,58.2895,303.0834,0,U,40967,999,11290,.24338137E-3,.2656E-4,0
SINOD-D 1,2015-058E,2026-06-12T15:58:57.789696,14.95878553,.01187516,64.7759,273.0707,54.8793,306.3382,0,U,40968,999,11598,.2771139E-3,.34E-4,0
SNAP-3 ALICE,2015-058G,2026-06-13T06:17:49.432416,15.59229242,.00290877,64.7493,117.4888,15.0220,345.1782,0,U,40970,999,11627,.14453705E-2,.117942E-2,0
LMRST-SAT,2015-058H,2026-06-12T17:53:43.463616,14.90571770,.01318368,64.7765,289.1156,60.3586,301.0580,0,U,40971,999,11289,.22903942E-3,.2472E-4,0
SNAP-3 EDDIE,2015-058J,2026-06-13T04:35:46.189248,15.60431383,.0028908,64.7418,108.4877,19.1787,341.0440,0,U,40972,999,11840,.15078127E-2,.129003E-2,0
PROPCUBE 3,2015-058K,2026-06-12T14:11:31.727616,14.94234160,.01238085,64.7689,266.8945,61.7247,299.6296,0,U,40973,999,11411,.26073476E-3,.3082E-4,0
BISONSAT,2015-058L,2026-06-13T06:33:43.684128,15.16108906,.00786723,64.7581,186.2972,48.8491,311.9385,0,U,40974,999,11502,.52630636E-3,.10829E-3,0
SNAP-3 JIMI,2015-058M,2026-06-13T06:16:42.065472,15.02267294,.01059694,64.7648,232.1924,56.9601,304.1641,0,U,40975,999,11363,.30893437E-3,.443E-4,0
PROPCUBE 1 (FLORA),2015-058N,2026-06-12T18:19:39.009216,14.89203393,.0130536,64.7754,308.9456,62.6553,298.7774,0,U,40976,999,11560,.25162039E-3,.2624E-4,0
SINOD-D 3,2015-058P,2026-06-12T22:58:02.511264,14.93991340,.0119057,64.7733,289.0281,59.8084,301.4758,0,U,40977,999,11412,.29404459E-3,.3436E-4,0
HORYU-4,2016-012D,2026-06-13T05:50:53.325600,15.92808659,.00042438,30.9840,107.9281,244.6601,115.3620,0,U,41340,999,57018,.112649E-2,.411178E-2,.59322033E-4
RAVAN,2016-067B,2026-06-13T05:53:56.497056,15.54321353,.00049619,97.9900,53.3642,43.7720,316.3925,0,U,41849,999,52708,.77475098E-3,.50837E-3,0
CELTEE 1,2016-067C,2026-06-12T14:21:00.470304,15.19639465,.00006898,98.0681,29.8524,116.0576,244.0728,0,U,41850,999,52518,.26267512E-3,.5522E-4,0
OPTICUBE 04,2016-067D,2026-06-13T02:27:16.725024,15.09643776,.00167721,98.0703,16.1732,128.2129,232.0612,0,U,41851,999,52455,.12177237E-3,.1893E-4,0
AEROCUBE 8D,2016-067E,2026-06-12T21:19:55.431264,15.24340641,.00044699,98.0694,33.7337,133.9475,226.2130,0,U,41852,999,52541,.30752469E-3,.7446E-4,0
AEROCUBE 8C,2016-067F,2026-06-13T04:14:57.705792,15.24592683,.00067338,98.0565,31.2768,80.1182,280.0814,0,U,41853,999,52545,.33293684E-3,.8133E-4,0
CORVUS BC2,2017-042X,2026-06-13T00:14:00.868992,15.06268141,.00141949,97.4050,325.5224,123.4942,236.7645,0,U,42846,999,48643,.25204671E-3,.3649E-4,0
CORVUS BC1,2017-042Y,2026-06-13T04:53:53.290464,15.06439913,.0013162,97.4084,326.5205,101.3669,258.9038,0,U,42847,999,48649,.26966273E-3,.3925E-4,0
MAKERSAT 0,2017-073D,2026-06-12T22:25:39.319968,15.31959582,.01053705,97.4638,46.4211,288.4199,70.5609,0,U,43016,999,46581,.54983891E-3,.20158E-3,0
