PERSEUS-M1              
1 40039U 14033AF  26163.82127730  .00001175  00000+0  11117-3 0  9992
2 40039  97.9645 107.8817 0010597 318.1805  41.8605 14.95620307649985
POLYITAN-1              
1 40042U 14033AJ  26164.00585224  .00019846  00000+0  62149-3 0  9998
2 40042  98.0944 189.8714 0008350 153.2138 206.9535 15.33116977652953
TIGRISAT                
1 40043U 14033AK  26164.14077733  .00001986  00000+0  23301-3 0  9998
2 40043  97.7822 314.2453 0050699  88.1511 272.5510 14.85147869645025
AEROCUBE 6A             
1 40045U 14033AM  26164.28316062  .00006239  00000+0  52408-3 0  9992
2 40045  97.7227 331.2733 0039198  31.2062 329.1476 14.98069607646036
AEROCUBE 6B             
1 40046U 14033AN  26163.68873523  .00006439  00000+0  52080-3 0  9994
2 40046  97.7230 330.4656 0038709  24.7259 335.5809 14.99528071646080
CANX-4                  
1 40055U 14034C   26163.89620382  .00000904  00000+0  12323-3 0  9998
2 40055  98.3129  39.0517 0013464  30.3250 329.8738 14.81257505643892
CANX-5                  
1 40056U 14034D   26164.23243717  .00000895  00000+0  12197-3 0  9999
2 40056  98.3130  39.4437 0013454  29.3655 330.8310 14.81275215634757
UKUBE-1                 
1 40074U 14037F   26164.26766177  .00008678  00000+0  48888-3 0  9998
2 40074  98.4232 167.1277 0002431 135.9382 224.2040 15.13496343647962
BRITE-PL2 (HEWELIUSZ)   
1 40119U 14049B   26164.28928686  .00001445  00000+0  13884-3 0  9991
2 40119  97.9094 276.2593 0015171 120.0264 240.2463 14.94581695640866
AEROCUBE 5C             
1 40965U 15058B   26163.67825300  .00002496  00000+0  22665-3 0  9996
2 40965  64.7678 276.6167 0130572  65.0335 296.4275 14.91434326364981
AEROCUBE 7              
1 40966U 15058C   26163.95490385  .00003315  00000+0  27085-3 0  9991
2 40966  64.7629 258.0717 0120290  63.3704 297.9673 14.95700512365324
FOX-1A (AO-85)          
1 40967U 15058D   26163.72438215  .00002656  00000+0  24338-3 0  9996
2 40967  64.7760 292.8522 0130225  58.2895 303.0834 14.90949991112907
SINOD-D 1               
1 40968U 15058E   26163.66594664  .00003400  00000+0  27711-3 0  9997
2 40968  64.7759 273.0707 0118751  54.8793 306.3382 14.95878553115986
SNAP-3 ALICE            
1 40970U 15058G   26164.26237769  .00117942  00000+0  14454-2 0  9993
2 40970  64.7493 117.4888 0029087  15.0220 345.1782 15.59229242116276
LMRST-SAT               
1 40971U 15058H   26163.74564194  .00002472  00000+0  22904-3 0  9992
2 40971  64.7765 289.1156 0131836  60.3586 301.0580 14.90571770112899
SNAP-3 EDDIE            
1 40972U 15058J   26164.19150682  .00129003  00000+0  15078-2 0  9999
2 40972  64.7418 108.4877 0028908  19.1787 341.0440 15.60431383118403
PROPCUBE 3              
1 40973U 15058K   26163.59133944  .00003082  00000+0  26073-3 0  9991
2 40973  64.7689 266.8945 0123808  61.7247 299.6296 14.94234160114119
BISONSAT                
1 40974U 15058L   26164.27342227  .00010829  00000+0  52631-3 0  9990
2 40974  64.7581 186.2972 0078672  48.8491 311.9385 15.16108906115022
SNAP-3 JIMI             
1 40975U 15058M   26164.26159798  .00004430  00000+0  30893-3 0  9996
2 40975  64.7648 232.1924 0105969  56.9601 304.1641 15.02267294113633
PROPCUBE 1 (FLORA)      
1 40976U 15058N   26163.76364594  .00002624  00000+0  25162-3 0  9999
2 40976  64.7754 308.9456 0130536  62.6553 298.7774 14.89203393115600
SINOD-D 3               
1 40977U 15058P   26163.95697351  .00003436  00000+0  29404-3 0  9996
2 40977  64.7733 289.0281 0119057  59.8084 301.4758 14.93991340114126
HORYU-4                 
1 41340U 16012D   26164.24367275  .00411178  59322-4  11265-2 0  9991
2 41340  30.9840 107.9281 0004243 244.6601 115.3620 15.92808659570184
RAVAN                   
1 41849U 16067B   26164.24579279  .00050837  00000+0  77475-3 0  9995
2 41849  97.9900  53.3642 0004961  43.7720 316.3925 15.54321353527081
CELTEE 1                
1 41850U 16067C   26163.59792211  .00005522  00000+0  26268-3 0  9992
2 41850  98.0681  29.8524 0000689 116.0576 244.0728 15.19639465525188
OPTICUBE 04             
1 41851U 16067D   26164.10227691  .00001893  00000+0  12177-3 0  9997
2 41851  98.0703  16.1732 0016772 128.2129 232.0612 15.09643776524551
AEROCUBE 8D             
1 41852U 16067E   26163.88883601  .00007446  00000+0  30752-3 0  9990
2 41852  98.0694  33.7337 0004469 133.9475 226.2130 15.24340641525412
AEROCUBE 8C             
1 41853U 16067F   26164.17705678  .00008133  00000+0  33294-3 0  9999
2 41853  98.0565  31.2768 0006733  80.1182 280.0814 15.24592683525451
CORVUS BC2              
1 42846U 17042X   26164.00973228  .00003649  00000+0  25205-3 0  9996
2 42846  97.4050 325.5224 0014194 123.4942 236.7645 15.06268141486430
CORVUS BC1              
1 42847U 17042Y   26164.20408901  .00003925  00000+0  26966-3 0  9992
2 42847  97.4084 326.5205 0013162 101.3669 258.9038 15.06439913486498
MAKERSAT 0              
1 43016U 17073D   26163.93448287  .00020158  00000+0  54984-3 0  9993
2 43016  97.4638  46.4211 0105370 288.4199  70.5609 15.31959582465817
